[{"OBJECT_NAME":"STARLINK-4678","OBJECT_ID":"2022-111H","EPOCH":"2026-03-09T21:21:33.715584","MEAN_MOTION":15.0883721,"ECCENTRICITY":0.00013935,"INCLINATION":53.2175,"RA_OF_ASC_NODE":273.4177,"ARG_OF_PERICENTER":85.3248,"MEAN_ANOMALY":274.7904,"EPHEMERIS_TYPE":0,"CLASSIFICATION_TYPE":"U","NORAD_CAT_ID":53780,"ELEMENT_SET_NO":999,"REV_AT_EPOCH":19372,"BSTAR":2.5211543e-5,"MEAN_MOTION_DOT":1.13e-6,"MEAN_MOTION_DDOT":0},{"OBJECT_NAME":"OBJECT J","OBJECT_ID":"2023-091J","EPOCH":"2026-03-09T22:57:45.383328","MEAN_MOTION":15.13201377,"ECCENTRICITY":0.00147906,"INCLINATION":97.519,"RA_OF_ASC_NODE":123.4537,"ARG_OF_PERICENTER":127.2759,"MEAN_ANOMALY":232.9824,"EPHEMERIS_TYPE":0,"CLASSIFICATION_TYPE":"U","NORAD_CAT_ID":57174,"ELEMENT_SET_NO":999,"REV_AT_EPOCH":14862,"BSTAR":0.00032020689,"MEAN_MOTION_DOT":5.634e-5,"MEAN_MOTION_DDOT":0}]
